{
    "links": {
        "self": "http://www.neowsapp.com/rest/v1/neo/3757594?api_key=iIulBulltgU6a56xZRHN4H3l9WmuAYTsLGpBGhQ2"
    },
    "id": "3757594",
    "neo_reference_id": "3757594",
    "name": "(2016 PG67)",
    "designation": "2016 PG67",
    "nasa_jpl_url": "http://ssd.jpl.nasa.gov/sbdb.cgi?sstr=3757594",
    "absolute_magnitude_h": 22.4,
    "estimated_diameter": {
        "kilometers": {
            "estimated_diameter_min": 0.0880146521,
            "estimated_diameter_max": 0.1968067451
        },
        "meters": {
            "estimated_diameter_min": 88.0146520901,
            "estimated_diameter_max": 196.8067450894
        },
        "miles": {
            "estimated_diameter_min": 0.0546897524,
            "estimated_diameter_max": 0.122290004
        },
        "feet": {
            "estimated_diameter_min": 288.7619911632,
            "estimated_diameter_max": 645.6914415591
        }
    },
    "is_potentially_hazardous_asteroid": false,
    "close_approach_data": [
        {
            "close_approach_date": "2013-11-22",
            "close_approach_date_full": "2013-Nov-22 07:42",
            "epoch_date_close_approach": 1385106120000,
            "relative_velocity": {
                "kilometers_per_second": "4.9513952631",
                "kilometers_per_hour": "17825.0229472746",
                "miles_per_hour": "11075.7760640996"
            },
            "miss_distance": {
                "astronomical": "1.3845568214",
                "lunar": "538.5926035246",
                "kilometers": "207126751.375410418",
                "miles": "128702595.2860350484"
            },
            "orbiting_body": "Juptr"
        },
        {
            "close_approach_date": "2016-07-29",
            "close_approach_date_full": "2016-Jul-29 08:27",
            "epoch_date_close_approach": 1469780820000,
            "relative_velocity": {
                "kilometers_per_second": "10.0819817926",
                "kilometers_per_hour": "36295.1344534702",
                "miles_per_hour": "22552.3850719354"
            },
            "miss_distance": {
                "astronomical": "0.3676218934",
                "lunar": "143.0049165326",
                "kilometers": "54995452.218007058",
                "miles": "34172589.4042430804"
            },
            "orbiting_body": "Earth"
        }
    ],
    "orbital_data": {
        "orbit_id": "4",
        "orbit_determination_date": "2017-04-06 08:24:27",
        "first_observation_date": "2016-08-05",
        "last_observation_date": "2016-09-27",
        "data_arc_in_days": 53,
        "observations_used": 20,
        "orbit_uncertainty": "7",
        "minimum_orbit_intersection": ".231414",
        "jupiter_tisserand_invariant": "3.070",
        "epoch_osculation": "2459000.5",
        "eccentricity": ".5803774158048991",
        "semi_major_axis": "2.697370573663898",
        "inclination": "13.43015858008349",
        "ascending_node_longitude": "223.8933716472186",
        "orbital_period": "1618.114873602098",
        "perihelion_distance": "1.131877610652666",
        "perihelion_argument": "67.14658293272767",
        "aphelion_distance": "4.262863536675129",
        "perihelion_time": "2459216.250540329298",
        "mean_anomaly": "311.999579395964",
        "mean_motion": ".2224811142107612",
        "equinox": "J2000",
        "orbit_class": {
            "orbit_class_type": "AMO",
            "orbit_class_description": "Near-Earth asteroid orbits similar to that of 1221 Amor",
            "orbit_class_range": "1.017 AU < q (perihelion) < 1.3 AU"
        }
    },
    "is_sentry_object": false
}